{
  "type": "FeatureCollection",
  "features": [
    {
      "type": "Feature",
      "properties": {
        "norad_id": 31475,
        "name": "FENGYUN 1C DEB",
        "group": "fengyun-1c-debris",
        "lat": 70.85180194820505,
        "lon": -137.21653082836315,
        "alt_km": 606.9632125543994,
        "timestamp": "2025-12-26T11:25:45.476391+00:00",
        "meta_object_name": "FENGYUN 1C DEB",
        "meta_object_id": "1999-025BVP",
        "meta_epoch": "2025-12-23T22:59:46.307040",
        "meta_mean_motion": 14.38250709,
        "meta_eccentricity": 0.0211772,
        "meta_inclination": 98.9391,
        "meta_ra_of_asc_node": 247.1174,
        "meta_arg_of_pericenter": 74.1506,
        "meta_mean_anomaly": 288.2912,
        "meta_ephemeris_type": 0,
        "meta_classification_type": "U",
        "meta_norad_cat_id": 31475,
        "meta_element_set_no": 999,
        "meta_rev_at_epoch": 96240,
        "meta_bstar": 0.00069378,
        "meta_mean_motion_dot": 2.684e-05,
        "meta_mean_motion_ddot": 0,
        "tle_line1": "1 31475U 99025BVP 25357.95817485  .00002684  00000+0  69378-3 0  9999",
        "tle_line2": "2 31475  98.9391 247.1174 0211772  74.1506 288.2912 14.38250709962402"
      },
      "geometry": {
        "type": "Point",
        "coordinates": [
          -137.21653082836315,
          70.85180194820505
        ]
      }
    },
    {
      "type": "Feature",
      "properties": {
        "norad_id": 31476,
        "name": "FENGYUN 1C DEB",
        "group": "fengyun-1c-debris",
        "lat": 25.6011893663933,
        "lon": -101.59805632210782,
        "alt_km": 781.3592937701451,
        "timestamp": "2025-12-26T11:25:45.476400+00:00",
        "meta_object_name": "FENGYUN 1C DEB",
        "meta_object_id": "1999-025BVQ",
        "meta_epoch": "2025-12-26T03:57:24.450048",
        "meta_mean_motion": 14.22189135,
        "meta_eccentricity": 0.0052819,
        "meta_inclination": 98.8965,
        "meta_ra_of_asc_node": 73.7838,
        "meta_arg_of_pericenter": 134.655,
        "meta_mean_anomaly": 225.8951,
        "meta_ephemeris_type": 0,
        "meta_classification_type": "U",
        "meta_norad_cat_id": 31476,
        "meta_element_set_no": 999,
        "meta_rev_at_epoch": 95890,
        "meta_bstar": 0.0014752,
        "meta_mean_motion_dot": 3.274e-05,
        "meta_mean_motion_ddot": 0,
        "tle_line1": "1 31476U 99025BVQ 25360.16486632  .00003274  00000+0  14752-2 0  9994",
        "tle_line2": "2 31476  98.8965  73.7838 0052819 134.6550 225.8951 14.22189135958902"
      },
      "geometry": {
        "type": "Point",
        "coordinates": [
          -101.59805632210782,
          25.6011893663933
        ]
      }
    },
    {
      "type": "Feature",
      "properties": {
        "norad_id": 31477,
        "name": "FENGYUN 1C DEB",
        "group": "fengyun-1c-debris",
        "lat": 29.986147825994355,
        "lon": -15.325851039896223,
        "alt_km": 820.472040269392,
        "timestamp": "2025-12-26T11:25:45.476409+00:00",
        "meta_object_name": "FENGYUN 1C DEB",
        "meta_object_id": "1999-025BVR",
        "meta_epoch": "2025-12-23T16:32:04.337376",
        "meta_mean_motion": 14.02935294,
        "meta_eccentricity": 0.01097133,
        "meta_inclination": 98.8872,
        "meta_ra_of_asc_node": 347.133,
        "meta_arg_of_pericenter": 358.4238,
        "meta_mean_anomaly": 1.6568,
        "meta_ephemeris_type": 0,
        "meta_classification_type": "U",
        "meta_norad_cat_id": 31477,
        "meta_element_set_no": 999,
        "meta_rev_at_epoch": 95557,
        "meta_bstar": 0.00038195011,
        "meta_mean_motion_dot": 5.81e-06,
        "meta_mean_motion_ddot": 0,
        "tle_line1": "1 31477U 99025BVR 25357.68893909  .00000581  00000+0  38195-3 0  9993",
        "tle_line2": "2 31477  98.8872 347.1330 0109713 358.4238   1.6568 14.02935294955577"
      },
      "geometry": {
        "type": "Point",
        "coordinates": [
          -15.325851039896223,
          29.986147825994355
        ]
      }
    },
    {
      "type": "Feature",
      "properties": {
        "norad_id": 31480,
        "name": "FENGYUN 1C DEB",
        "group": "fengyun-1c-debris",
        "lat": 46.520961427114905,
        "lon": 39.155456269167544,
        "alt_km": 759.0460230127419,
        "timestamp": "2025-12-26T11:25:45.476418+00:00",
        "meta_object_name": "FENGYUN 1C DEB",
        "meta_object_id": "1999-025BVU",
        "meta_epoch": "2025-12-26T00:24:43.214112",
        "meta_mean_motion": 13.90051256,
        "meta_eccentricity": 0.0343554,
        "meta_inclination": 98.3395,
        "meta_ra_of_asc_node": 209.8445,
        "meta_arg_of_pericenter": 184.3601,
        "meta_mean_anomaly": 175.4547,
        "meta_ephemeris_type": 0,
        "meta_classification_type": "U",
        "meta_norad_cat_id": 31480,
        "meta_element_set_no": 999,
        "meta_rev_at_epoch": 93580,
        "meta_bstar": 0.0026909,
        "meta_mean_motion_dot": 5.314e-05,
        "meta_mean_motion_ddot": 0,
        "tle_line1": "1 31480U 99025BVU 25360.01716683  .00005314  00000+0  26909-2 0  9999",
        "tle_line2": "2 31480  98.3395 209.8445 0343554 184.3601 175.4547 13.90051256935804"
      },
      "geometry": {
        "type": "Point",
        "coordinates": [
          39.155456269167544,
          46.520961427114905
        ]
      }
    },
    {
      "type": "Feature",
      "properties": {
        "norad_id": 31482,
        "name": "FENGYUN 1C DEB",
        "group": "fengyun-1c-debris",
        "lat": -58.73760749164002,
        "lon": 18.00598360375201,
        "alt_km": 747.0268437007617,
        "timestamp": "2025-12-26T11:25:45.476427+00:00",
        "meta_object_name": "FENGYUN 1C DEB",
        "meta_object_id": "1999-025BVW",
        "meta_epoch": "2025-12-24T06:15:25.833024",
        "meta_mean_motion": 14.3570192,
        "meta_eccentricity": 0.00887436,
        "meta_inclination": 98.3828,
        "meta_ra_of_asc_node": 1.7956,
        "meta_arg_of_pericenter": 247.5543,
        "meta_mean_anomaly": 127.5422,
        "meta_ephemeris_type": 0,
        "meta_classification_type": "U",
        "meta_norad_cat_id": 31482,
        "meta_element_set_no": 999,
        "meta_rev_at_epoch": 97295,
        "meta_bstar": 0.0006698744,
        "meta_mean_motion_dot": 1.979e-05,
        "meta_mean_motion_ddot": 0,
        "tle_line1": "1 31482U 99025BVW 25358.26071566  .00001979  00000+0  66987-3 0  9993",
        "tle_line2": "2 31482  98.3828   1.7956 0088743 247.5543 127.5422 14.35701920972953"
      },
      "geometry": {
        "type": "Point",
        "coordinates": [
          18.00598360375201,
          -58.73760749164002
        ]
      }
    },
    {
      "type": "Feature",
      "properties": {
        "norad_id": 31483,
        "name": "FENGYUN 1C DEB",
        "group": "fengyun-1c-debris",
        "lat": -77.44054039252295,
        "lon": 51.25972682680528,
        "alt_km": 833.1228115360373,
        "timestamp": "2025-12-26T11:25:45.476437+00:00",
        "meta_object_name": "FENGYUN 1C DEB",
        "meta_object_id": "1999-025BVX",
        "meta_epoch": "2025-12-25T16:20:58.735104",
        "meta_mean_motion": 14.16165365,
        "meta_eccentricity": 0.01178017,
        "meta_inclination": 102.5049,
        "meta_ra_of_asc_node": 315.1162,
        "meta_arg_of_pericenter": 188.5674,
        "meta_mean_anomaly": 347.9676,
        "meta_ephemeris_type": 0,
        "meta_classification_type": "U",
        "meta_norad_cat_id": 31483,
        "meta_element_set_no": 999,
        "meta_rev_at_epoch": 94889,
        "meta_bstar": 0.002430612,
        "meta_mean_motion_dot": 5.074e-05,
        "meta_mean_motion_ddot": 0,
        "tle_line1": "1 31483U 99025BVX 25359.68123536  .00005074  00000+0  24306-2 0  9994",
        "tle_line2": "2 31483 102.5049 315.1162 0117801 188.5674 347.9676 14.16165365948896"
      },
      "geometry": {
        "type": "Point",
        "coordinates": [
          51.25972682680528,
          -77.44054039252295
        ]
      }
    },
    {
      "type": "Feature",
      "properties": {
        "norad_id": 31484,
        "name": "FENGYUN 1C DEB",
        "group": "fengyun-1c-debris",
        "lat": -15.687734759791306,
        "lon": 118.9646253174521,
        "alt_km": 717.7946078697723,
        "timestamp": "2025-12-26T11:25:45.476447+00:00",
        "meta_object_name": "FENGYUN 1C DEB",
        "meta_object_id": "1999-025BVY",
        "meta_epoch": "2025-12-23T01:26:10.111200",
        "meta_mean_motion": 14.50731885,
        "meta_eccentricity": 0.00830007,
        "meta_inclination": 101.8064,
        "meta_ra_of_asc_node": 297.5559,
        "meta_arg_of_pericenter": 124.1407,
        "meta_mean_anomaly": 236.7682,
        "meta_ephemeris_type": 0,
        "meta_classification_type": "U",
        "meta_norad_cat_id": 31484,
        "meta_element_set_no": 999,
        "meta_rev_at_epoch": 64387,
        "meta_bstar": 0.0046453294,
        "meta_mean_motion_dot": 0.00019079,
        "meta_mean_motion_ddot": 0,
        "tle_line1": "1 31484U 99025BVY 25357.05983925  .00019079  00000+0  46453-2 0  9997",
        "tle_line2": "2 31484 101.8064 297.5559 0083000 124.1407 236.7682 14.50731885643878"
      },
      "geometry": {
        "type": "Point",
        "coordinates": [
          118.9646253174521,
          -15.687734759791306
        ]
      }
    }
  ]
}